[{"OBJECT_NAME":"ONEWEB-0315","OBJECT_ID":"2021-075AC","EPOCH":"2025-08-28T21:59:11.668128","MEAN_MOTION":13.12442172,"ECCENTRICITY":0.00020973,"INCLINATION":87.8869,"RA_OF_ASC_NODE":48.7223,"ARG_OF_PERICENTER":94.868,"MEAN_ANOMALY":265.2688,"EPHEMERIS_TYPE":0,"CLASSIFICATION_TYPE":"U","NORAD_CAT_ID":49101,"ELEMENT_SET_NO":999,"REV_AT_EPOCH":19683,"BSTAR":0.0013206449,"MEAN_MOTION_DOT":4.88e-6,"MEAN_MOTION_DDOT":0},{"OBJECT_NAME":"ONEWEB-0316","OBJECT_ID":"2021-075AD","EPOCH":"2025-08-29T04:27:57.192768","MEAN_MOTION":13.18687716,"ECCENTRICITY":0.00019781,"INCLINATION":87.9164,"RA_OF_ASC_NODE":33.4547,"ARG_OF_PERICENTER":95.5148,"MEAN_ANOMALY":264.6209,"EPHEMERIS_TYPE":0,"CLASSIFICATION_TYPE":"U","NORAD_CAT_ID":49102,"ELEMENT_SET_NO":999,"REV_AT_EPOCH":19872,"BSTAR":-1.3153303e-5,"MEAN_MOTION_DOT":8.0e-8,"MEAN_MOTION_DDOT":0},{"OBJECT_NAME":"ONEWEB-0317","OBJECT_ID":"2021-075AE","EPOCH":"2025-08-29T05:08:59.206560","MEAN_MOTION":13.12443302,"ECCENTRICITY":9.079e-5,"INCLINATION":87.8876,"RA_OF_ASC_NODE":48.677,"ARG_OF_PERICENTER":86.8294,"MEAN_ANOMALY":273.2938,"EPHEMERIS_TYPE":0,"CLASSIFICATION_TYPE":"U","NORAD_CAT_ID":49103,"ELEMENT_SET_NO":999,"REV_AT_EPOCH":19689,"BSTAR":0.00056370987,"MEAN_MOTION_DOT":2.16e-6,"MEAN_MOTION_DDOT":0},{"OBJECT_NAME":"ONEWEB-0318","OBJECT_ID":"2021-075AF","EPOCH":"2025-08-28T22:55:26.010624","MEAN_MOTION":13.18684895,"ECCENTRICITY":0.00019484,"INCLINATION":87.9163,"RA_OF_ASC_NODE":33.4871,"ARG_OF_PERICENTER":96.2115,"MEAN_ANOMALY":263.924,"EPHEMERIS_TYPE":0,"CLASSIFICATION_TYPE":"U","NORAD_CAT_ID":49104,"ELEMENT_SET_NO":999,"REV_AT_EPOCH":19865,"BSTAR":6.2172303e-5,"MEAN_MOTION_DOT":3.7e-7,"MEAN_MOTION_DDOT":0},{"OBJECT_NAME":"ONEWEB-0319","OBJECT_ID":"2021-075AG","EPOCH":"2025-08-29T04:46:18.677856","MEAN_MOTION":13.17648232,"ECCENTRICITY":0.00020591,"INCLINATION":87.9028,"RA_OF_ASC_NODE":63.9726,"ARG_OF_PERICENTER":98.1699,"MEAN_ANOMALY":261.9666,"EPHEMERIS_TYPE":0,"CLASSIFICATION_TYPE":"U","NORAD_CAT_ID":49105,"ELEMENT_SET_NO":999,"REV_AT_EPOCH":19515,"BSTAR":6.6664207e-5,"MEAN_MOTION_DOT":3.9e-7,"MEAN_MOTION_DDOT":0},{"OBJECT_NAME":"ONEWEB-0323","OBJECT_ID":"2021-075AH","EPOCH":"2025-08-29T04:54:57.564288","MEAN_MOTION":13.12442713,"ECCENTRICITY":0.00023296,"INCLINATION":87.8879,"RA_OF_ASC_NODE":48.6652,"ARG_OF_PERICENTER":105.2144,"MEAN_ANOMALY":254.9242,"EPHEMERIS_TYPE":0,"CLASSIFICATION_TYPE":"U","NORAD_CAT_ID":49106,"ELEMENT_SET_NO":999,"REV_AT_EPOCH":19625,"BSTAR":-0.00030892659,"MEAN_MOTION_DOT":-9.8e-7,"MEAN_MOTION_DDOT":0},{"OBJECT_NAME":"ONEWEB-0329","OBJECT_ID":"2021-075AJ","EPOCH":"2025-08-29T01:19:46.092576","MEAN_MOTION":13.17649858,"ECCENTRICITY":0.00018866,"INCLINATION":87.9025,"RA_OF_ASC_NODE":64.0054,"ARG_OF_PERICENTER":96.467,"MEAN_ANOMALY":263.6676,"EPHEMERIS_TYPE":0,"CLASSIFICATION_TYPE":"U","NORAD_CAT_ID":49107,"ELEMENT_SET_NO":999,"REV_AT_EPOCH":19511,"BSTAR":-7.4406999e-5,"MEAN_MOTION_DOT":-1.6e-7,"MEAN_MOTION_DDOT":0},{"OBJECT_NAME":"ONEWEB-0330","OBJECT_ID":"2021-075AK","EPOCH":"2025-08-29T04:59:40.343712","MEAN_MOTION":13.17652136,"ECCENTRICITY":0.00015924,"INCLINATION":87.903,"RA_OF_ASC_NODE":63.978,"ARG_OF_PERICENTER":97.2821,"MEAN_ANOMALY":262.8492,"EPHEMERIS_TYPE":0,"CLASSIFICATION_TYPE":"U","NORAD_CAT_ID":49108,"ELEMENT_SET_NO":999,"REV_AT_EPOCH":19517,"BSTAR":1.6390985e-5,"MEAN_MOTION_DOT":1.9e-7,"MEAN_MOTION_DDOT":0},{"OBJECT_NAME":"ONEWEB-0292","OBJECT_ID":"2021-083A","EPOCH":"2025-08-28T22:45:33.502752","MEAN_MOTION":13.13469246,"ECCENTRICITY":0.00019116,"INCLINATION":87.9008,"RA_OF_ASC_NODE":18.3197,"ARG_OF_PERICENTER":98.8377,"MEAN_ANOMALY":261.2969,"EPHEMERIS_TYPE":0,"CLASSIFICATION_TYPE":"U","NORAD_CAT_ID":49186,"ELEMENT_SET_NO":999,"REV_AT_EPOCH":19256,"BSTAR":-0.0008998804,"MEAN_MOTION_DOT":-3.16e-6,"MEAN_MOTION_DDOT":0},{"OBJECT_NAME":"ONEWEB-0303","OBJECT_ID":"2021-083B","EPOCH":"2025-08-29T04:18:28.533888","MEAN_MOTION":13.18685904,"ECCENTRICITY":0.00019153,"INCLINATION":87.9164,"RA_OF_ASC_NODE":33.4429,"ARG_OF_PERICENTER":96.7682,"MEAN_ANOMALY":263.3668,"EPHEMERIS_TYPE":0,"CLASSIFICATION_TYPE":"U","NORAD_CAT_ID":49187,"ELEMENT_SET_NO":999,"REV_AT_EPOCH":19149,"BSTAR":-9.4953176e-5,"MEAN_MOTION_DOT":-2.5e-7,"MEAN_MOTION_DDOT":0},{"OBJECT_NAME":"ONEWEB-0306","OBJECT_ID":"2021-083C","EPOCH":"2025-08-29T04:04:13.425312","MEAN_MOTION":13.18686469,"ECCENTRICITY":0.00015625,"INCLINATION":87.9163,"RA_OF_ASC_NODE":33.4305,"ARG_OF_PERICENTER":92.2238,"MEAN_ANOMALY":267.9074,"EPHEMERIS_TYPE":0,"CLASSIFICATION_TYPE":"U","NORAD_CAT_ID":49188,"ELEMENT_SET_NO":999,"REV_AT_EPOCH":19153,"BSTAR":0.00011634696,"MEAN_MOTION_DOT":5.9e-7,"MEAN_MOTION_DDOT":0},{"OBJECT_NAME":"ONEWEB-0307","OBJECT_ID":"2021-083D","EPOCH":"2025-08-29T02:16:23.981664","MEAN_MOTION":13.13472102,"ECCENTRICITY":0.00014265,"INCLINATION":87.9,"RA_OF_ASC_NODE":18.2891,"ARG_OF_PERICENTER":102.6774,"MEAN_ANOMALY":257.4515,"EPHEMERIS_TYPE":0,"CLASSIFICATION_TYPE":"U","NORAD_CAT_ID":49189,"ELEMENT_SET_NO":999,"REV_AT_EPOCH":19258,"BSTAR":-0.00022795873,"MEAN_MOTION_DOT":-7.1e-7,"MEAN_MOTION_DDOT":0},{"OBJECT_NAME":"ONEWEB-0320","OBJECT_ID":"2021-083E","EPOCH":"2025-08-29T04:13:41.763648","MEAN_MOTION":13.18684173,"ECCENTRICITY":0.00017973,"INCLINATION":87.9163,"RA_OF_ASC_NODE":33.4575,"ARG_OF_PERICENTER":95.6006,"MEAN_ANOMALY":264.5331,"EPHEMERIS_TYPE":0,"CLASSIFICATION_TYPE":"U","NORAD_CAT_ID":49190,"ELEMENT_SET_NO":999,"REV_AT_EPOCH":19149,"BSTAR":1.2444302e-5,"MEAN_MOTION_DOT":1.8e-7,"MEAN_MOTION_DDOT":0},{"OBJECT_NAME":"ONEWEB-0321","OBJECT_ID":"2021-083F","EPOCH":"2025-08-29T05:37:19.500672","MEAN_MOTION":13.20770386,"ECCENTRICITY":0.00015603,"INCLINATION":87.9288,"RA_OF_ASC_NODE":332.625,"ARG_OF_PERICENTER":96.0315,"MEAN_ANOMALY":264.0996,"EPHEMERIS_TYPE":0,"CLASSIFICATION_TYPE":"U","NORAD_CAT_ID":49191,"ELEMENT_SET_NO":999,"REV_AT_EPOCH":19829,"BSTAR":2.4115208e-5,"MEAN_MOTION_DOT":2.3e-7,"MEAN_MOTION_DDOT":0},{"OBJECT_NAME":"ONEWEB-0322","OBJECT_ID":"2021-083G","EPOCH":"2025-08-28T22:30:56.656800","MEAN_MOTION":13.1347041,"ECCENTRICITY":0.00013779,"INCLINATION":87.9012,"RA_OF_ASC_NODE":18.315,"ARG_OF_PERICENTER":91.1204,"MEAN_ANOMALY":269.0083,"EPHEMERIS_TYPE":0,"CLASSIFICATION_TYPE":"U","NORAD_CAT_ID":49192,"ELEMENT_SET_NO":999,"REV_AT_EPOCH":19255,"BSTAR":-0.00047393594,"MEAN_MOTION_DOT":-1.6e-6,"MEAN_MOTION_DDOT":0},{"OBJECT_NAME":"ONEWEB-0324","OBJECT_ID":"2021-083H","EPOCH":"2025-08-29T03:54:41.599872","MEAN_MOTION":13.18686541,"ECCENTRICITY":0.00017041,"INCLINATION":87.9164,"RA_OF_ASC_NODE":33.4397,"ARG_OF_PERICENTER":100.2007,"MEAN_ANOMALY":259.9317,"EPHEMERIS_TYPE":0,"CLASSIFICATION_TYPE":"U","NORAD_CAT_ID":49193,"ELEMENT_SET_NO":999,"REV_AT_EPOCH":19151,"BSTAR":2.3781972e-5,"MEAN_MOTION_DOT":2.2e-7,"MEAN_MOTION_DDOT":0},{"OBJECT_NAME":"ONEWEB-0325","OBJECT_ID":"2021-083J","EPOCH":"2025-08-29T03:59:28.046112","MEAN_MOTION":13.18685942,"ECCENTRICITY":0.00017116,"INCLINATION":87.9164,"RA_OF_ASC_NODE":33.4564,"ARG_OF_PERICENTER":92.5673,"MEAN_ANOMALY":267.5655,"EPHEMERIS_TYPE":0,"CLASSIFICATION_TYPE":"U","NORAD_CAT_ID":49194,"ELEMENT_SET_NO":999,"REV_AT_EPOCH":19152,"BSTAR":-4.541199e-6,"MEAN_MOTION_DOT":1.1e-7,"MEAN_MOTION_DDOT":0},{"OBJECT_NAME":"ONEWEB-0326","OBJECT_ID":"2021-083K","EPOCH":"2025-08-29T04:21:02.289600","MEAN_MOTION":13.18688373,"ECCENTRICITY":0.0002128,"INCLINATION":87.9161,"RA_OF_ASC_NODE":33.4418,"ARG_OF_PERICENTER":95.2206,"MEAN_ANOMALY":264.9169,"EPHEMERIS_TYPE":0,"CLASSIFICATION_TYPE":"U","NORAD_CAT_ID":49195,"ELEMENT_SET_NO":999,"REV_AT_EPOCH":19151,"BSTAR":-0.00010926813,"MEAN_MOTION_DOT":-3.0e-7,"MEAN_MOTION_DDOT":0},{"OBJECT_NAME":"ONEWEB-0327","OBJECT_ID":"2021-083L","EPOCH":"2025-08-29T04:20:36.948480","MEAN_MOTION":13.18687619,"ECCENTRICITY":0.0002102,"INCLINATION":87.9159,"RA_OF_ASC_NODE":33.4693,"ARG_OF_PERICENTER":94.7953,"MEAN_ANOMALY":265.3419,"EPHEMERIS_TYPE":0,"CLASSIFICATION_TYPE":"U","NORAD_CAT_ID":49196,"ELEMENT_SET_NO":999,"REV_AT_EPOCH":19153,"BSTAR":-0.00014605349,"MEAN_MOTION_DOT":-4.5e-7,"MEAN_MOTION_DDOT":0},{"OBJECT_NAME":"ONEWEB-0328","OBJECT_ID":"2021-083M","EPOCH":"2025-08-28T22:16:19.235424","MEAN_MOTION":13.13470293,"ECCENTRICITY":0.00016804,"INCLINATION":87.9012,"RA_OF_ASC_NODE":18.2557,"ARG_OF_PERICENTER":101.5294,"MEAN_ANOMALY":258.6024,"EPHEMERIS_TYPE":0,"CLASSIFICATION_TYPE":"U","NORAD_CAT_ID":49197,"ELEMENT_SET_NO":999,"REV_AT_EPOCH":19253,"BSTAR":0.00015933615,"MEAN_MOTION_DOT":7.1e-7,"MEAN_MOTION_DDOT":0},{"OBJECT_NAME":"ONEWEB-0331","OBJECT_ID":"2021-083N","EPOCH":"2025-08-29T04:11:21.075072","MEAN_MOTION":13.18686079,"ECCENTRICITY":0.00020468,"INCLINATION":87.9161,"RA_OF_ASC_NODE":33.4355,"ARG_OF_PERICENTER":102.5602,"MEAN_ANOMALY":257.5759,"EPHEMERIS_TYPE":0,"CLASSIFICATION_TYPE":"U","NORAD_CAT_ID":49198,"ELEMENT_SET_NO":999,"REV_AT_EPOCH":19152,"BSTAR":-1.6282373e-5,"MEAN_MOTION_DOT":6.0e-8,"MEAN_MOTION_DDOT":0},{"OBJECT_NAME":"ONEWEB-0333","OBJECT_ID":"2021-083P","EPOCH":"2025-08-29T07:17:29.213376","MEAN_MOTION":13.13469262,"ECCENTRICITY":0.00017352,"INCLINATION":87.8999,"RA_OF_ASC_NODE":18.25,"ARG_OF_PERICENTER":95.1869,"MEAN_ANOMALY":264.9458,"EPHEMERIS_TYPE":0,"CLASSIFICATION_TYPE":"U","NORAD_CAT_ID":49199,"ELEMENT_SET_NO":999,"REV_AT_EPOCH":19259,"BSTAR":0.00077740151,"MEAN_MOTION_DOT":2.97e-6,"MEAN_MOTION_DDOT":0},{"OBJECT_NAME":"ONEWEB-0334","OBJECT_ID":"2021-083Q","EPOCH":"2025-08-29T06:02:19.289760","MEAN_MOTION":13.20770462,"ECCENTRICITY":0.00014124,"INCLINATION":87.9286,"RA_OF_ASC_NODE":332.6548,"ARG_OF_PERICENTER":67.1324,"MEAN_ANOMALY":292.9959,"EPHEMERIS_TYPE":0,"CLASSIFICATION_TYPE":"U","NORAD_CAT_ID":49200,"ELEMENT_SET_NO":999,"REV_AT_EPOCH":19825,"BSTAR":4.690821e-5,"MEAN_MOTION_DOT":3.2e-7,"MEAN_MOTION_DDOT":0}]
